0 SL-16 DEB
1 22405U 92093CW  13282.42945586  .00000296  00000-0  10319-3 0  9641
2 22405 071.0365 296.0013 0126919 046.8481 061.5398 14.39019080 87841
0 SL-16 DEB
1 22405U 92093CW  13287.43523431  .00000397  00000-0  13279-3 0  9660
2 22405 071.0364 285.0840 0127179 038.8268 073.9163 14.39023061 88560
0 SL-16 DEB
1 22405U 92093CW  13289.46074725  .00000467  00000-0  15347-3 0  9679
2 22405 071.0367 280.6664 0127307 035.5805 127.0889 14.39025961 88851
0 SL-16 DEB
1 22405U 92093CW  13292.16443409  .00000599  00000-0  19228-3 0  9688
2 22405 071.0371 274.7699 0127464 031.2591 093.5579 14.39028109 89241
0 SL-16 DEB
1 22405U 92093CW  13294.18267051  .00000688  00000-0  21843-3 0  9695
2 22405 071.0373 270.3684 0127566 028.0320 109.0654 14.39031144 89538
0 SL-16 DEB
1 22405U 92093CW  13296.18990618  .00000750  00000-0  23649-3 0  9707
2 22405 071.0373 265.9911 0127735 024.8329 067.5910 14.39034555 89826
